{"type": "FeatureCollection", "features": [ {"type": "Feature", "properties": {"norad_id": 28659, "name": "DIRECTV 8", "group": "intelsat", "lat": 0.028614487335360497, "lon": 102.27135451077312, "alt_km": 35797.79353640793, "timestamp": "2025-12-17T09:00:16.812306+00:00", "meta": {"OBJECT_NAME": "DIRECTV 8", "OBJECT_ID": "2005-019A", "EPOCH": "2025-12-16T16:12:44.660160", "MEAN_MOTION": 1.00272768, "ECCENTRICITY": 0.00028694, "INCLINATION": 0.0167, "RA_OF_ASC_NODE": 319.8619, "ARG_OF_PERICENTER": 314.1922, "MEAN_ANOMALY": 295.6578, "EPHEMERIS_TYPE": 0, "CLASSIFICATION_TYPE": "U", "NORAD_CAT_ID": 28659, "ELEMENT_SET_NO": 999, "REV_AT_EPOCH": 7524, "BSTAR": 0, "MEAN_MOTION_DOT": 2.5e-07, "MEAN_MOTION_DDOT": 0}, "tle": {"line1": "1 28659U 05019A   25350.67551690  .00000025  00000+0  00000+0 0  9994", "line2": "2 28659   0.0167 319.8619 0002869 314.1922 295.6578  1.00272768 75243"}}, "geometry": {"type": "Point", "coordinates": [102.27135451077312, 0.028614487335360497]}}, {"type": "Feature", "properties": {"norad_id": 28702, "name": "GALAXY 28 (G-28)", "group": "intelsat", "lat": 2.22588719153288, "lon": 132.55949378475307, "alt_km": 35795.289211202326, "timestamp": "2025-12-17T09:00:16.812318+00:00", "meta": {"OBJECT_NAME": "GALAXY 28 (G-28)", "OBJECT_ID": "2005-022A", "EPOCH": "2025-12-16T19:47:01.643712", "MEAN_MOTION": 1.00270923, "ECCENTRICITY": 0.00028933, "INCLINATION": 2.8297, "RA_OF_ASC_NODE": 81.2353, "ARG_OF_PERICENTER": 190.2574, "MEAN_ANOMALY": 22.2764, "EPHEMERIS_TYPE": 0, "CLASSIFICATION_TYPE": "U", "NORAD_CAT_ID": 28702, "ELEMENT_SET_NO": 999, "REV_AT_EPOCH": 5014, "BSTAR": 0, "MEAN_MOTION_DOT": -1.65e-06, "MEAN_MOTION_DDOT": 0}, "tle": {"line1": "1 28702U 05022A   25350.82432458 -.00000165  00000+0  00000+0 0  9990", "line2": "2 28702   2.8297  81.2353 0002893 190.2574  22.2764  1.00270923 50148"}}, "geometry": {"type": "Point", "coordinates": [132.55949378475307, 2.22588719153288]}}, {"type": "Feature", "properties": {"norad_id": 29236, "name": "GALAXY 16 (G-16)", "group": "intelsat", "lat": -0.002413397262226742, "lon": 122.29439986890824, "alt_km": 35793.95429511738, "timestamp": "2025-12-17T09:00:16.812330+00:00", "meta": {"OBJECT_NAME": "GALAXY 16 (G-16)", "OBJECT_ID": "2006-023A", "EPOCH": "2025-12-16T19:43:54.441696", "MEAN_MOTION": 1.00272373, "ECCENTRICITY": 0.00024693, "INCLINATION": 0.0333, "RA_OF_ASC_NODE": 221.4079, "ARG_OF_PERICENTER": 40.9552, "MEAN_ANOMALY": 20.3221, "EPHEMERIS_TYPE": 0, "CLASSIFICATION_TYPE": "U", "NORAD_CAT_ID": 29236, "ELEMENT_SET_NO": 999, "REV_AT_EPOCH": 7114, "BSTAR": 0, "MEAN_MOTION_DOT": -1.03e-06, "MEAN_MOTION_DDOT": 0}, "tle": {"line1": "1 29236U 06023A   25350.82215789 -.00000103  00000+0  00000+0 0  9993", "line2": "2 29236   0.0333 221.4079 0002469  40.9552  20.3221  1.00272373 71142"}}, "geometry": {"type": "Point", "coordinates": [122.29439986890824, -0.002413397262226742]}}, {"type": "Feature", "properties": {"norad_id": 29494, "name": "DIRECTV 9S", "group": "intelsat", "lat": 1.1908714351132497, "lon": 120.0702503856078, "alt_km": 35796.352310806404, "timestamp": "2025-12-17T09:00:16.812342+00:00", "meta": {"OBJECT_NAME": "DIRECTV 9S", "OBJECT_ID": "2006-043A", "EPOCH": "2025-12-16T16:17:59.157888", "MEAN_MOTION": 1.00271928, "ECCENTRICITY": 0.00028392, "INCLINATION": 1.95, "RA_OF_ASC_NODE": 83.1705, "ARG_OF_PERICENTER": 187.3504, "MEAN_ANOMALY": 318.3309, "EPHEMERIS_TYPE": 0, "CLASSIFICATION_TYPE": "U", "NORAD_CAT_ID": 29494, "ELEMENT_SET_NO": 999, "REV_AT_EPOCH": 4955, "BSTAR": 0, "MEAN_MOTION_DOT": -9.1e-07, "MEAN_MOTION_DDOT": 0}, "tle": {"line1": "1 29494U 06043A   25350.67915692 -.00000091  00000+0  00000+0 0  9990", "line2": "2 29494   1.9500  83.1705 0002839 187.3504 318.3309  1.00271928 49559"}}, "geometry": {"type": "Point", "coordinates": [120.0702503856078, 1.1908714351132497]}}, {"type": "Feature", "properties": {"norad_id": 31307, "name": "GALAXY 17 (G-17)", "group": "intelsat", "lat": 2.0460268902890624, "lon": 136.25541903847176, "alt_km": 35795.155341618105, "timestamp": "2025-12-17T09:00:16.812354+00:00", "meta": {"OBJECT_NAME": "GALAXY 17 (G-17)", "OBJECT_ID": "2007-016B", "EPOCH": "2025-12-16T09:31:44.853024", "MEAN_MOTION": 1.00272119, "ECCENTRICITY": 0.00055712, "INCLINATION": 2.5091, "RA_OF_ASC_NODE": 82.2451, "ARG_OF_PERICENTER": 167.3136, "MEAN_ANOMALY": 253.6918, "EPHEMERIS_TYPE": 0, "CLASSIFICATION_TYPE": "U", "NORAD_CAT_ID": 31307, "ELEMENT_SET_NO": 999, "REV_AT_EPOCH": 6797, "BSTAR": 0, "MEAN_MOTION_DOT": -1.85e-06, "MEAN_MOTION_DDOT": 0}, "tle": {"line1": "1 31307U 07016B   25350.39704691 -.00000185  00000+0  00000+0 0  9995", "line2": "2 31307   2.5091  82.2451 0005571 167.3136 253.6918  1.00272119 67976"}}, "geometry": {"type": "Point", "coordinates": [136.25541903847176, 2.0460268902890624]}}, {"type": "Feature", "properties": {"norad_id": 31862, "name": "DIRECTV 10", "group": "intelsat", "lat": 0.01282542909495677, "lon": 118.5052796158885, "alt_km": 35786.6468099323, "timestamp": "2025-12-17T09:00:16.812365+00:00", "meta": {"OBJECT_NAME": "DIRECTV 10", "OBJECT_ID": "2007-032A", "EPOCH": "2025-12-16T16:17:29.205600", "MEAN_MOTION": 1.00269493, "ECCENTRICITY": 3.773e-05, "INCLINATION": 0.0087, "RA_OF_ASC_NODE": 63.5062, "ARG_OF_PERICENTER": 141.6463, "MEAN_ANOMALY": 21.99, "EPHEMERIS_TYPE": 0, "CLASSIFICATION_TYPE": "U", "NORAD_CAT_ID": 31862, "ELEMENT_SET_NO": 999, "REV_AT_EPOCH": 4376, "BSTAR": 0, "MEAN_MOTION_DOT": -7.9e-07, "MEAN_MOTION_DDOT": 0}, "tle": {"line1": "1 31862U 07032A   25350.67881025 -.00000079  00000+0  00000+0 0  9999", "line2": "2 31862   0.0087  63.5062 0000377 141.6463  21.9900  1.00269493 43766"}}, "geometry": {"type": "Point", "coordinates": [118.5052796158885, 0.01282542909495677]}}, {"type": "Feature", "properties": {"norad_id": 32253, "name": "INTELSAT 11 (IS-11)", "group": "intelsat", "lat": -0.7390191198009608, "lon": 66.61709508030812, "alt_km": 36168.81180478462, "timestamp": "2025-12-17T09:00:16.812377+00:00", "meta": {"OBJECT_NAME": "INTELSAT 11 (IS-11)", "OBJECT_ID": "2007-044B", "EPOCH": "2025-12-16T16:03:36.807264", "MEAN_MOTION": 0.9905059, "ECCENTRICITY": 0.00086333, "INCLINATION": 3.0901, "RA_OF_ASC_NODE": 80.9335, "ARG_OF_PERICENTER": 167.4492, "MEAN_ANOMALY": 286.4611, "EPHEMERIS_TYPE": 0, "CLASSIFICATION_TYPE": "U", "NORAD_CAT_ID": 32253, "ELEMENT_SET_NO": 999, "REV_AT_EPOCH": 6664, "BSTAR": 0, "MEAN_MOTION_DOT": 3.4e-07, "MEAN_MOTION_DDOT": 0}, "tle": {"line1": "1 32253U 07044B   25350.66917601  .00000034  00000+0  00000+0 0  9996", "line2": "2 32253   3.0901  80.9335 0008633 167.4492 286.4611  0.99050590 66648"}}, "geometry": {"type": "Point", "coordinates": [66.61709508030812, -0.7390191198009608]}}, {"type": "Feature", "properties": {"norad_id": 32388, "name": "HORIZONS-2", "group": "intelsat", "lat": 1.9345130622738786, "lon": 147.46813407292765, "alt_km": 35796.839270849094, "timestamp": "2025-12-17T09:00:16.812389+00:00", "meta": {"OBJECT_NAME": "HORIZONS-2", "OBJECT_ID": "2007-063B", "EPOCH": "2025-12-16T09:34:52.054176", "MEAN_MOTION": 1.00273259, "ECCENTRICITY": 0.00045866, "INCLINATION": 2.1307, "RA_OF_ASC_NODE": 82.925, "ARG_OF_PERICENTER": 190.3624, "MEAN_ANOMALY": 241.9276, "EPHEMERIS_TYPE": 0, "CLASSIFICATION_TYPE": "U", "NORAD_CAT_ID": 32388, "ELEMENT_SET_NO": 999, "REV_AT_EPOCH": 6598, "BSTAR": 0, "MEAN_MOTION_DOT": -2.31e-06, "MEAN_MOTION_DDOT": 0}, "tle": {"line1": "1 32388U 07063B   25350.39921359 -.00000231  00000+0  00000+0 0  9991", "line2": "2 32388   2.1307  82.9250 0004586 190.3624 241.9276  1.00273259 65981"}}, "geometry": {"type": "Point", "coordinates": [147.46813407292765, 1.9345130622738786]}}, {"type": "Feature", "properties": {"norad_id": 32729, "name": "DIRECTV 11", "group": "intelsat", "lat": 0.003358490170552266, "lon": 122.12197303944497, "alt_km": 35784.59516869762, "timestamp": "2025-12-17T09:00:16.812401+00:00", "meta": {"OBJECT_NAME": "DIRECTV 11", "OBJECT_ID": "2008-013A", "EPOCH": "2025-12-16T14:35:52.709280", "MEAN_MOTION": 1.00271168, "ECCENTRICITY": 5.824e-05, "INCLINATION": 0.0329, "RA_OF_ASC_NODE": 197.6068, "ARG_OF_PERICENTER": 331.0822, "MEAN_ANOMALY": 36.5951, "EPHEMERIS_TYPE": 0, "CLASSIFICATION_TYPE": "U", "NORAD_CAT_ID": 32729, "ELEMENT_SET_NO": 999, "REV_AT_EPOCH": 4376, "BSTAR": 0, "MEAN_MOTION_DOT": -1.02e-06, "MEAN_MOTION_DDOT": 0}, "tle": {"line1": "1 32729U 08013A   25350.60824895 -.00000102  00000+0  00000+0 0  9994", "line2": "2 32729   0.0329 197.6068 0000582 331.0822  36.5951  1.00271168 43765"}}, "geometry": {"type": "Point", "coordinates": [122.12197303944497, 0.003358490170552266]}}, {"type": "Feature", "properties": {"norad_id": 32951, "name": "GALAXY 18 (G-18)", "group": "intelsat", "lat": 0.0017693324114773847, "lon": 98.30844594181866, "alt_km": 35797.681695741, "timestamp": "2025-12-17T09:00:16.812412+00:00", "meta": {"OBJECT_NAME": "GALAXY 18 (G-18)", "OBJECT_ID": "2008-024A", "EPOCH": "2025-12-16T16:11:44.755584", "MEAN_MOTION": 1.00272775, "ECCENTRICITY": 0.00028214, "INCLINATION": 0.0058, "RA_OF_ASC_NODE": 83.6904, "ARG_OF_PERICENTER": 190.776, "MEAN_ANOMALY": 291.0296, "EPHEMERIS_TYPE": 0, "CLASSIFICATION_TYPE": "U", "NORAD_CAT_ID": 32951, "ELEMENT_SET_NO": 999, "REV_AT_EPOCH": 4402, "BSTAR": 0, "MEAN_MOTION_DOT": 4.9e-07, "MEAN_MOTION_DDOT": 0}, "tle": {"line1": "1 32951U 08024A   25350.67482356  .00000049  00000+0  00000+0 0  9991", "line2": "2 32951   0.0058  83.6904 0002821 190.7760 291.0296  1.00272775 44028"}}, "geometry": {"type": "Point", "coordinates": [98.30844594181866, 0.0017693324114773847]}}]}